CCSDS_OMM_VERS = 2.0
CREATION_DATE  = 
ORIGINATOR     = 

OBJECT_NAME    = YOTSUBA-KULOVER
OBJECT_ID      = 1998-067XN
CENTER_NAME    = EARTH
REF_FRAME      = TEME
TIME_SYSTEM    = UTC
MEAN_ELEMENT_THEORY = SGP/SGP4

EPOCH          = 2026-03-08T16:39:13.598496
MEAN_MOTION    = 15.80060036
ECCENTRICITY   = .00057159
INCLINATION    = 51.6212
RA_OF_ASC_NODE = 62.4559
ARG_OF_PERICENTER = 60.6343
MEAN_ANOMALY   = 299.5228

EPHEMERIS_TYPE = 0
CLASSIFICATION_TYPE = U
NORAD_CAT_ID   = 65941
ELEMENT_SET_NO = 999
REV_AT_EPOCH   = 2334
BSTAR          = .12995069E-2
MEAN_MOTION_DOT = .254466E-2
MEAN_MOTION_DDOT = 0

CCSDS_OMM_VERS = 2.0
CREATION_DATE  = 
ORIGINATOR     = 

OBJECT_NAME    = E-KAGAKU-1
OBJECT_ID      = 1998-067XQ
CENTER_NAME    = EARTH
REF_FRAME      = TEME
TIME_SYSTEM    = UTC
MEAN_ELEMENT_THEORY = SGP/SGP4

EPOCH          = 2026-03-08T16:45:19.771200
MEAN_MOTION    = 15.79720534
ECCENTRICITY   = .00060705
INCLINATION    = 51.6232
RA_OF_ASC_NODE = 62.5017
ARG_OF_PERICENTER = 67.8284
MEAN_ANOMALY   = 292.3361

EPHEMERIS_TYPE = 0
CLASSIFICATION_TYPE = U
NORAD_CAT_ID   = 65943
ELEMENT_SET_NO = 999
REV_AT_EPOCH   = 2334
BSTAR          = .12837561E-2
MEAN_MOTION_DOT = .247328E-2
MEAN_MOTION_DDOT = 0

CCSDS_OMM_VERS = 2.0
CREATION_DATE  = 
ORIGINATOR     = 

OBJECT_NAME    = HRC MONOBLOCK CAMERA
OBJECT_ID      = 1998-067XR
CENTER_NAME    = EARTH
REF_FRAME      = TEME
TIME_SYSTEM    = UTC
MEAN_ELEMENT_THEORY = SGP/SGP4

EPOCH          = 2026-03-08T23:55:12.694944
MEAN_MOTION    = 15.62119990
ECCENTRICITY   = .00036367
INCLINATION    = 51.6277
RA_OF_ASC_NODE = 69.0307
ARG_OF_PERICENTER = 87.1335
MEAN_ANOMALY   = 273.0075

EPHEMERIS_TYPE = 0
CLASSIFICATION_TYPE = U
NORAD_CAT_ID   = 66052
ELEMENT_SET_NO = 999
REV_AT_EPOCH   = 2228
BSTAR          = .72842222E-3
MEAN_MOTION_DOT = .65165E-3
MEAN_MOTION_DDOT = 0

CCSDS_OMM_VERS = 2.0
CREATION_DATE  = 
ORIGINATOR     = 

OBJECT_NAME    = HTV-X1
OBJECT_ID      = 2025-241A
CENTER_NAME    = EARTH
REF_FRAME      = TEME
TIME_SYSTEM    = UTC
MEAN_ELEMENT_THEORY = SGP/SGP4

EPOCH          = 2026-03-08T17:44:01.330656
MEAN_MOTION    = 15.48531098
ECCENTRICITY   = .00080508
INCLINATION    = 51.6319
RA_OF_ASC_NODE = 77.0569
ARG_OF_PERICENTER = 171.0721
MEAN_ANOMALY   = 189.0412

EPHEMERIS_TYPE = 0
CLASSIFICATION_TYPE = U
NORAD_CAT_ID   = 66174
ELEMENT_SET_NO = 999
REV_AT_EPOCH   = 55447
BSTAR          = .18226947E-3
MEAN_MOTION_DOT = .9449E-4
MEAN_MOTION_DDOT = 0

CCSDS_OMM_VERS = 2.0
CREATION_DATE  = 
ORIGINATOR     = 

OBJECT_NAME    = SZ-21 MODULE
OBJECT_ID      = 2025-246C
CENTER_NAME    = EARTH
REF_FRAME      = TEME
TIME_SYSTEM    = UTC
MEAN_ELEMENT_THEORY = SGP/SGP4

EPOCH          = 2026-03-08T17:40:24.022560
MEAN_MOTION    = 15.68463397
ECCENTRICITY   = .00013651
INCLINATION    = 41.4736
RA_OF_ASC_NODE = 209.2286
ARG_OF_PERICENTER = 296.9264
MEAN_ANOMALY   = 63.1439

EPHEMERIS_TYPE = 0
CLASSIFICATION_TYPE = U
NORAD_CAT_ID   = 66515
ELEMENT_SET_NO = 999
REV_AT_EPOCH   = 1792
BSTAR          = .4111263E-3
MEAN_MOTION_DOT = .47754E-3
MEAN_MOTION_DDOT = 0

CCSDS_OMM_VERS = 2.0
CREATION_DATE  = 
ORIGINATOR     = 

OBJECT_NAME    = SHENZHOU-22
OBJECT_ID      = 2025-272A
CENTER_NAME    = EARTH
REF_FRAME      = TEME
TIME_SYSTEM    = UTC
MEAN_ELEMENT_THEORY = SGP/SGP4

EPOCH          = 2026-03-08T19:40:20.057376
MEAN_MOTION    = 15.60610742
ECCENTRICITY   = .00069989
INCLINATION    = 41.4664
RA_OF_ASC_NODE = 213.4556
ARG_OF_PERICENTER = 268.3248
MEAN_ANOMALY   = 91.6789

EPHEMERIS_TYPE = 0
CLASSIFICATION_TYPE = U
NORAD_CAT_ID   = 66645
ELEMENT_SET_NO = 999
REV_AT_EPOCH   = 26752
BSTAR          = .34617107E-3
MEAN_MOTION_DOT = .29275E-3
MEAN_MOTION_DDOT = 0

CCSDS_OMM_VERS = 2.0
CREATION_DATE  = 
ORIGINATOR     = 

OBJECT_NAME    = SOYUZ-MS 28
OBJECT_ID      = 2025-275A
CENTER_NAME    = EARTH
REF_FRAME      = TEME
TIME_SYSTEM    = UTC
MEAN_ELEMENT_THEORY = SGP/SGP4

EPOCH          = 2026-03-08T17:44:01.330656
MEAN_MOTION    = 15.48531098
ECCENTRICITY   = .00080508
INCLINATION    = 51.6319
RA_OF_ASC_NODE = 77.0569
ARG_OF_PERICENTER = 171.0721
MEAN_ANOMALY   = 189.0412

EPHEMERIS_TYPE = 0
CLASSIFICATION_TYPE = U
NORAD_CAT_ID   = 66664
ELEMENT_SET_NO = 999
REV_AT_EPOCH   = 55452
BSTAR          = .18226947E-3
MEAN_MOTION_DOT = .9449E-4
MEAN_MOTION_DDOT = 0

CCSDS_OMM_VERS = 2.0
CREATION_DATE  = 
ORIGINATOR     = 

OBJECT_NAME    = DUPLEX
OBJECT_ID      = 1998-067XS
CENTER_NAME    = EARTH
REF_FRAME      = TEME
TIME_SYSTEM    = UTC
MEAN_ELEMENT_THEORY = SGP/SGP4

EPOCH          = 2026-03-08T10:19:31.725120
MEAN_MOTION    = 15.56119236
ECCENTRICITY   = .00022721
INCLINATION    = 51.6288
RA_OF_ASC_NODE = 75.7492
ARG_OF_PERICENTER = 106.3589
MEAN_ANOMALY   = 253.7653

EPHEMERIS_TYPE = 0
CLASSIFICATION_TYPE = U
NORAD_CAT_ID   = 66906
ELEMENT_SET_NO = 999
REV_AT_EPOCH   = 1493
BSTAR          = .62979677E-3
MEAN_MOTION_DOT = .44619E-3
MEAN_MOTION_DDOT = 0

CCSDS_OMM_VERS = 2.0
CREATION_DATE  = 
ORIGINATOR     = 

OBJECT_NAME    = ISS OBJECT XT
OBJECT_ID      = 1998-067XT
CENTER_NAME    = EARTH
REF_FRAME      = TEME
TIME_SYSTEM    = UTC
MEAN_ELEMENT_THEORY = SGP/SGP4

EPOCH          = 2026-03-08T07:24:56.473344
MEAN_MOTION    = 15.68765418
ECCENTRICITY   = .00047131
INCLINATION    = 51.6249
RA_OF_ASC_NODE = 72.6759
ARG_OF_PERICENTER = 69.3241
MEAN_ANOMALY   = 290.8261

EPHEMERIS_TYPE = 0
CLASSIFICATION_TYPE = U
NORAD_CAT_ID   = 66907
ELEMENT_SET_NO = 999
REV_AT_EPOCH   = 1496
BSTAR          = .18024497E-2
MEAN_MOTION_DOT = .215395E-2
MEAN_MOTION_DDOT = 0

CCSDS_OMM_VERS = 2.0
CREATION_DATE  = 
ORIGINATOR     = 

OBJECT_NAME    = ISS OBJECT XU
OBJECT_ID      = 1998-067XU
CENTER_NAME    = EARTH
REF_FRAME      = TEME
TIME_SYSTEM    = UTC
MEAN_ELEMENT_THEORY = SGP/SGP4

EPOCH          = 2026-03-08T05:50:46.029984
MEAN_MOTION    = 15.68848873
ECCENTRICITY   = .00049112
INCLINATION    = 51.6246
RA_OF_ASC_NODE = 72.9860
ARG_OF_PERICENTER = 71.7703
MEAN_ANOMALY   = 288.3828

EPHEMERIS_TYPE = 0
CLASSIFICATION_TYPE = U
NORAD_CAT_ID   = 66908
ELEMENT_SET_NO = 999
REV_AT_EPOCH   = 1495
BSTAR          = .17892878E-2
MEAN_MOTION_DOT = .21454E-2
MEAN_MOTION_DDOT = 0

CCSDS_OMM_VERS = 2.0
CREATION_DATE  = 
ORIGINATOR     = 

OBJECT_NAME    = SILVERSAT
OBJECT_ID      = 1998-067XV
CENTER_NAME    = EARTH
REF_FRAME      = TEME
TIME_SYSTEM    = UTC
MEAN_ELEMENT_THEORY = SGP/SGP4

EPOCH          = 2026-03-08T13:34:03.669600
MEAN_MOTION    = 15.71749865
ECCENTRICITY   = .00055693
INCLINATION    = 51.6250
RA_OF_ASC_NODE = 70.6330
ARG_OF_PERICENTER = 69.6016
MEAN_ANOMALY   = 290.5580

EPHEMERIS_TYPE = 0
CLASSIFICATION_TYPE = U
NORAD_CAT_ID   = 66909
ELEMENT_SET_NO = 999
REV_AT_EPOCH   = 1501
BSTAR          = .17565873E-2
MEAN_MOTION_DOT = .238432E-2
MEAN_MOTION_DDOT = 0

CCSDS_OMM_VERS = 2.0
CREATION_DATE  = 
ORIGINATOR     = 

OBJECT_NAME    = ISS OBJECT XW
OBJECT_ID      = 1998-067XW
CENTER_NAME    = EARTH
REF_FRAME      = TEME
TIME_SYSTEM    = UTC
MEAN_ELEMENT_THEORY = SGP/SGP4

EPOCH          = 2026-03-08T07:16:44.794272
MEAN_MOTION    = 15.68140942
ECCENTRICITY   = .00051063
INCLINATION    = 51.6242
RA_OF_ASC_NODE = 72.6301
ARG_OF_PERICENTER = 77.4385
MEAN_ANOMALY   = 282.7182

EPHEMERIS_TYPE = 0
CLASSIFICATION_TYPE = U
NORAD_CAT_ID   = 66910
ELEMENT_SET_NO = 999
REV_AT_EPOCH   = 1496
BSTAR          = .1669832E-2
MEAN_MOTION_DOT = .193965E-2
MEAN_MOTION_DDOT = 0

